SKYSAT-A                
1 39418U 13066C   21280.79745976  .00000305  00000-0  29703-4 0  9991
2 39418  97.5818 354.7578 0021258  32.1451 328.1063 14.99246052430796
SKYSAT-B                
1 40072U 14037D   21281.11697948  .00000175  00000-0  29819-4 0  9993
2 40072  98.4409 131.6452 0007408  51.6778 308.5098 14.81461289391969
SKYSAT-C1               
1 41601U 16040C   21281.21488271  .00004320  00000-0  11062-3 0  9992
2 41601  97.1835 356.6285 0001212 126.3547 233.7811 15.39924029295179
FLOCK 2P-9              
1 41610U 16040M   21280.72587569  .00007255  00000-0  26266-3 0  9999
2 41610  97.2690 339.7887 0007926 282.0715  77.9637 15.28667628294398
FLOCK 2P-8              
1 41613U 16040Q   21281.15085815  .00004528  00000-0  16537-3 0  9997
2 41613  97.2734 341.1283 0007818 291.5897  68.4510 15.28582495294622
FLOCK 2P-3              
1 41618U 16040V   21280.73411443  .00007342  00000-0  26601-3 0  9995
2 41618  97.2758 341.1332 0007554 294.0993  65.9457 15.28638277294565
SKYSAT-C4               
1 41771U 16058B   21281.17656234  .00004166  00000-0  10751-3 0  9992
2 41771  97.1555 347.5726 0002000 101.1267 259.0204 15.39699140282122
SKYSAT-C5               
1 41772U 16058C   21281.23448412  .00001712  00000-0  71836-4 0  9993
2 41772  97.3019 346.4446 0001855  84.4026 275.7423 15.24809289281320
SKYSAT-C2               
1 41773U 16058D   21280.75630793  .00004153  00000-0  10685-3 0  9991
2 41773  97.1565 347.5302 0002507  85.2283 274.9249 15.39794863282085
SKYSAT-C3               
1 41774U 16058E   21280.77421972  .00004237  00000-0  10930-3 0  9997
2 41774  97.1559 347.4776 0002008  99.1111 261.0363 15.39705305282079
FLOCK 3P-8              
1 41951U 17008D   21280.73160530  .00003509  00000-0  13043-3 0  9995
2 41951  97.3115 346.2957 0008934  54.7664 305.4410 15.28157054258426
FLOCK 3P-24             
1 41956U 17008J   21280.75944997  .00004147  00000-0  14495-3 0  9990
2 41956  97.3138 349.4510 0008251  39.3864 320.7975 15.30079139258649
FLOCK 3P-4              
1 41965U 17008T   21280.49346042  .00004168  00000-0  15219-3 0  9996
2 41965  97.3108 346.1272 0008904  53.5451 306.6609 15.28631466258315
FLOCK 3P-2              
1 41966U 17008U   21280.75941321  .00005854  00000-0  21275-3 0  9999
2 41966  97.3122 346.5478 0008488  50.9417 309.2577 15.28623306258276
FLOCK 3P-3              
1 41968U 17008W   21281.16607493  .00003643  00000-0  13286-3 0  9993
2 41968  97.3119 347.2811 0008612  48.7707 311.4274 15.28758597258347
FLOCK 3P-12             
1 41972U 17008AA  21280.74040457  .00004017  00000-0  14656-3 0  9990
2 41972  97.3125 346.5974 0008561  55.7685 304.4365 15.28681759258356
FLOCK 3P-11             
1 41975U 17008AD  21280.75260280  .00003814  00000-0  13948-3 0  9999
2 41975  97.3113 346.5069 0008748  53.5314 306.6731 15.28639080258242
FLOCK 3P-58             
1 41977U 17008AF  21280.74708863  .00004310  00000-0  15725-3 0  9991
2 41977  97.3125 346.5936 0008601  54.6177 305.5865 15.28644247258435
FLOCK 3P-57             
1 41978U 17008AG  21280.73297493  .00004019  00000-0  14687-3 0  9995
2 41978  97.3118 346.5638 0008591  53.2130 306.9897 15.28632514258275
FLOCK 3P-70             
1 41980U 17008AJ  21280.73629014  .00003969  00000-0  14516-3 0  9990
2 41980  97.3160 347.2310 0008694  56.5610 303.6460 15.28612996258275
FLOCK 3P-34             
1 41988U 17008AS  21281.18991188  .00003820  00000-0  13986-3 0  9998
2 41988  97.3136 347.1797 0008085  52.6322 307.5653 15.28603483257823
FLOCK 3P-33             
1 41990U 17008AU  21280.75278112  .00003155  00000-0  11952-3 0  9990
2 41990  97.3127 346.1952 0008283  57.7677 302.4364 15.27601706257724
FLOCK 3P-49             
1 42001U 17008BF  21280.77016814  .00004757  00000-0  17249-3 0  9999
2 42001  97.3124 346.9040 0008799  69.2624 290.9558 15.28788389258296
FLOCK 3P-61             
1 42009U 17008BP  21280.71124782  .00006192  00000-0  22552-3 0  9993
2 42009  97.3125 346.6442 0008762  71.7586 288.4607 15.28524352258401
FLOCK 3P-40             
1 42010U 17008BQ  21281.16273395  .00004695  00000-0  17136-3 0  9998
2 42010  97.3112 346.9412 0008704  73.5637 286.6559 15.28584113257734
FLOCK 3P-54             
1 42014U 17008BU  21280.69599659  .00004059  00000-0  14850-3 0  9997
2 42014  97.3132 346.6636 0008174  74.7209 285.4934 15.28592905258434
FLOCK 3P-23             
1 42018U 17008BY  21281.15479379  .00005599  00000-0  20325-3 0  9993
2 42018  97.3112 346.7827 0008755  49.9567 310.2439 15.28673503257266
FLOCK 3P-76             
1 42019U 17008BZ  21280.73953642  .00004380  00000-0  15996-3 0  9992
2 42019  97.3173 347.3502 0008868  57.3816 302.8278 15.28602093258261
FLOCK 3P-32             
1 42023U 17008CD  21280.64811044  .00004221  00000-0  15414-3 0  9995
2 42023  97.3120 346.5407 0008460  53.5751 306.6268 15.28622487258425
FLOCK 3P-80             
1 42026U 17008CG  21280.76876000  .00003399  00000-0  12481-3 0  9990
2 42026  97.3153 347.2586 0008354  58.9688 301.2371 15.28585284256427
FLOCK 3P-66             
1 42027U 17008CH  21280.65683327  .00006250  00000-0  22745-3 0  9990
2 42027  97.3127 346.5943 0009005  68.8803 291.3399 15.28546634258372
FLOCK 3P-65             
1 42028U 17008CJ  21281.17916951  .00005331  00000-0  19446-3 0  9994
2 42028  97.3132 347.2144 0008841  66.8973 293.3198 15.28538410258353
FLOCK 3P-50             
1 42029U 17008CK  21280.71690785  .00003931  00000-0  14417-3 0  9995
2 42029  97.3142 346.8561 0008585  70.0083 290.2081 15.28528532257605
FLOCK 3P-46             
1 42031U 17008CM  21280.71014752  .00004101  00000-0  15009-3 0  9990
2 42031  97.3117 346.5559 0008598  70.2877 289.9289 15.28566382258433
FLOCK 3P-64             
1 42034U 17008CQ  21280.77209738  .00005938  00000-0  21600-3 0  9992
2 42034  97.3113 346.6073 0008616  73.1400 287.0784 15.28584740258436
FLOCK 3P-55             
1 42041U 17008CX  21281.18629736  .00005545  00000-0  20128-3 0  9998
2 42041  97.3112 347.1105 0008246  75.9031 284.3125 15.28682971258517
FLOCK 3P-74             
1 42048U 17008DE  21281.14284444  .00004413  00000-0  16114-3 0  9997
2 42048  97.3162 347.6516 0008900  55.8245 304.3837 15.28598533257658
FLOCK 2K-3              
1 42850U 17042AB  21280.63449612  .00017081  00000-0  32410-3 0  9991
2 42850  96.8367 127.8096 0009198  29.9241 330.2535 15.48317583237746
FLOCK 2K-45             
1 42856U 17042AH  21280.64584298  .00014772  00000-0  28214-3 0  9999
2 42856  96.8376 127.7892 0008507  32.0839 328.0929 15.48164078237747
FLOCK 2K-21             
1 42860U 17042AM  21280.57811883  .00015898  00000-0  30291-3 0  9997
2 42860  96.8392 127.8962 0008687  32.0582 328.1197 15.48216896237736
FLOCK 2K-7              
1 42862U 17042AP  21280.63284747  .00015162  00000-0  28894-3 0  9999
2 42862  96.8386 127.9976 0008796  29.2930 330.8813 15.48219783237758
FLOCK 2K-40             
1 42865U 17042AS  21280.63896501  .00014375  00000-0  27433-3 0  9992
2 42865  96.8384 127.9794 0008840  29.8754 330.3001 15.48190331237747
FLOCK 2K-39             
1 42866U 17042AT  21281.14561164  .00014341  00000-0  27345-3 0  9999
2 42866  96.8385 128.4660 0008629  29.9842 330.1902 15.48217948237822
FLOCK 2K-37             
1 42867U 17042AU  21281.14245969  .00014863  00000-0  28288-3 0  9998
2 42867  96.8377 128.4167 0008758  30.0403 330.1350 15.48261169237826
FLOCK 2K-32             
1 42870U 17042AX  21281.13671694  .00010817  00000-0  20744-3 0  9993
2 42870  96.8381 128.3910 0008140  27.4021 332.7659 15.48122469237820
FLOCK 2K-29             
1 42871U 17042AY  21280.87446874  .00021983  00000-0  41851-3 0  9992
2 42871  96.8376 128.1655 0008437  25.0345 335.1314 15.48180796237788
FLOCK 2K-30             
1 42872U 17042AZ  21280.87108469  .00013769  00000-0  26260-3 0  9998
2 42872  96.8393 128.2729 0008572  26.0341 334.1340 15.48219498237777
FLOCK 2K-41             
1 42875U 17042BC  21280.52106235  .00011399  00000-0  21818-3 0  9993
2 42875  96.8384 127.9772 0009612  18.8066 341.3539 15.48150449237739
FLOCK 2K-35             
1 42877U 17042BE  21281.12534118  .00012689  00000-0  24317-3 0  9997
2 42877  96.8383 128.5017 0009452  17.0091 343.1476 15.48090810237825
FLOCK 2K-19             
1 42886U 17042BP  21280.79844882  .00016491  00000-0  31483-3 0  9998
2 42886  96.8382 128.1876 0009937  18.4213 341.7397 15.48139689237770
FLOCK 2K-18             
1 42887U 17042BQ  21280.66567839  .00016615  00000-0  31701-3 0  9990
2 42887  96.8384 128.0807 0009964  17.8038 342.3561 15.48154412237753
FLOCK 2K-15             
1 42890U 17042BT  21280.66228656  .00015594  00000-0  29771-3 0  9994
2 42890  96.8381 128.2073 0010088  16.4671 343.6906 15.48149360237751
FLOCK 2K-12             
1 42893U 17042BW  21280.65437171  .00010540  00000-0  20188-3 0  9999
2 42893  96.8381 128.1222 0009696  18.1218 342.0377 15.48148274237756
FLOCK 2K-10             
1 42895U 17042BY  21280.52853146  .00015550  00000-0  29718-3 0  9995
2 42895  96.8377 127.8818 0009805  16.8093 343.3482 15.48122007237733
SKYSAT-C11              
1 42987U 17068A   21280.90281279  .00005544  00000-0  13827-3 0  9995
2 42987  97.2713  36.1430 0010582 121.5805 238.6476 15.40559641219521
SKYSAT-C10              
1 42988U 17068B   21281.27522583  .00005095  00000-0  12717-3 0  9991
2 42988  97.2754  36.5667 0003249 152.6329 207.5089 15.40623255219608
SKYSAT-C9               
1 42989U 17068C   21280.88156446  .00005119  00000-0  12847-3 0  9990
2 42989  97.2706  35.4957 0002008  63.5960 296.5492 15.40456669219732
SKYSAT-C8               
1 42990U 17068D   21280.86926774  .00005392  00000-0  13461-3 0  9995
2 42990  97.2759  36.5473 0002269 110.8400 249.3090 15.40594175219567
SKYSAT-C7               
1 42991U 17068E   21281.11484421  .00005500  00000-0  13698-3 0  9996
2 42991  97.2765  36.8286 0000756 135.0497 225.0811 15.40659990219608
SKYSAT-C6               
1 42992U 17068F   21280.90834632  .00005229  00000-0  13025-3 0  9998
2 42992  97.2783  36.9411 0001978  55.7413 304.4020 15.40678764219584
